{
  "norad_id": 52491,
  "name": "STARLINK-3908",
  "history": [
    {
      "epoch": "2026-03-28T21:53:46.799808Z",
      "apogee_km": 540.8709307304989,
      "perigee_km": 538.6127967118036,
      "latitude_deg": -3.883822688112112e-06,
      "longitude_deg": 168.058711527092,
      "height_km": 540.5973676131264,
      "semi_major_axis_km": 6917.878863721151,
      "eccentricity": 0.00016321,
      "inclination_deg": 53.2189,
      "raan_deg": 322.8297,
      "arg_perigee_deg": 87.9706,
      "mean_anomaly_deg": 272.1473,
      "mean_motion_rev_day": 15.08840499
    },
    {
      "epoch": "2026-03-29T01:04:33.453696Z",
      "apogee_km": 540.7817886531138,
      "perigee_km": 538.7313250028701,
      "latitude_deg": -3.915553119552245e-06,
      "longitude_deg": 119.63953768894947,
      "height_km": 540.5475798348322,
      "semi_major_axis_km": 6917.893556827992,
      "eccentricity": 0.0001482,
      "inclination_deg": 53.218,
      "raan_deg": 322.2355,
      "arg_perigee_deg": 84.1448,
      "mean_anomaly_deg": 275.9713,
      "mean_motion_rev_day": 15.08835692
    },
    {
      "epoch": "2026-03-30T00:55:19.843104Z",
      "apogee_km": 540.6277734133782,
      "perigee_km": 538.8010455701879,
      "latitude_deg": -2.958765351773558e-05,
      "longitude_deg": 116.50620050385957,
      "height_km": 540.6375663981092,
      "semi_major_axis_km": 6917.851409491783,
      "eccentricity": 0.00013203,
      "inclination_deg": 53.2172,
      "raan_deg": 317.7748,
      "arg_perigee_deg": 91.7196,
      "mean_anomaly_deg": 268.3947,
      "mean_motion_rev_day": 15.08849481
    },
    {
      "epoch": "2026-03-30T15:13:46.686432Z",
      "apogee_km": 540.3543262803014,
      "perigee_km": 538.8141648221917,
      "latitude_deg": 2.5750192992691377e-05,
      "longitude_deg": -101.369791220332,
      "height_km": 540.2673597186231,
      "semi_major_axis_km": 6917.721245551246,
      "eccentricity": 0.00011132,
      "inclination_deg": 53.2167,
      "raan_deg": 315.0982,
      "arg_perigee_deg": 73.948,
      "mean_anomaly_deg": 286.1635,
      "mean_motion_rev_day": 15.08892067
    },
    {
      "epoch": "2026-03-30T21:35:21.032736Z",
      "apogee_km": 540.7257139306003,
      "perigee_km": 538.779849892745,
      "latitude_deg": 2.8306736576086857e-05,
      "longitude_deg": 161.78702433355204,
      "height_km": 540.5639720450536,
      "semi_major_axis_km": 6917.889781911673,
      "eccentricity": 0.00014064,
      "inclination_deg": 53.2163,
      "raan_deg": 313.9093,
      "arg_perigee_deg": 85.0271,
      "mean_anomaly_deg": 275.0882,
      "mean_motion_rev_day": 15.08836927
    },
    {
      "epoch": "2026-03-31T21:26:08.193696Z",
      "apogee_km": 540.8228765126141,
      "perigee_km": 538.6714145433552,
      "latitude_deg": 6.781464219314648e-06,
      "longitude_deg": 158.64866746963145,
      "height_km": 540.7160114252599,
      "semi_major_axis_km": 6917.884145527984,
      "eccentricity": 0.0001555,
      "inclination_deg": 53.2168,
      "raan_deg": 309.4468,
      "arg_perigee_deg": 93.9175,
      "mean_anomaly_deg": 266.1995,
      "mean_motion_rev_day": 15.08838771
    },
    {
      "epoch": "2026-04-01T21:16:55.801344Z",
      "apogee_km": 540.7640169736151,
      "perigee_km": 538.7813440591799,
      "latitude_deg": -1.3378740575030184e-05,
      "longitude_deg": 155.51034519980098,
      "height_km": 540.6207622424434,
      "semi_major_axis_km": 6917.909680516397,
      "eccentricity": 0.0001433,
      "inclination_deg": 53.2199,
      "raan_deg": 304.9862,
      "arg_perigee_deg": 87.2368,
      "mean_anomaly_deg": 272.8788,
      "mean_motion_rev_day": 15.08830417
    },
    {
      "epoch": "2026-04-02T21:07:42.848256Z",
      "apogee_km": 540.7315862011101,
      "perigee_km": 538.7532110506909,
      "latitude_deg": -4.9753918585539085e-05,
      "longitude_deg": 152.37505318160223,
      "height_km": 540.7075334127003,
      "semi_major_axis_km": 6917.8793986259,
      "eccentricity": 0.00014299,
      "inclination_deg": 53.2187,
      "raan_deg": 300.5263,
      "arg_perigee_deg": 94.0217,
      "mean_anomaly_deg": 266.0938,
      "mean_motion_rev_day": 15.08840324
    }
  ]
}